start=new Date('2023-02-17T00:00:00.000Z').valueOf();
sats=[{"REV_AT_EPOCH":"2955","OBJECT_NAME":"STARLINK-4496","OBJECT_ID":"2022-097AA","MEAN_MOTION_DOT":"-0.00000192","TLE_LINE2":"2 53412  53.2176  87.9178 0001955  76.0418 284.0791 15.08827829 29559","DECAY_DATE":null,"OBJECT_TYPE":"PAYLOAD","RCS_SIZE":"LARGE","ELEMENT_SET_NO":"999","TIME_SYSTEM":"UTC","SEMIMAJOR_AXIS":"6917.918","NORAD_CAT_ID":"53412","MEAN_ELEMENT_THEORY":"SGP4","ARG_OF_PERICENTER":"76.0418","INCLINATION":"53.2176","PERIOD":"95.438","APOAPSIS":"541.135","EPHEMERIS_TYPE":"0","LAUNCH_DATE":"2022-08-10","TLE_LINE1":"1 53412U 22097AA  23047.82475362 -.00000192  00000-0  60733-5 0  9995","COUNTRY_CODE":"US","CENTER_NAME":"EARTH","EPOCH":"2023-02-16T19:47:38.712768","GP_ID":"225690789","MEAN_MOTION":"15.08827829","RA_OF_ASC_NODE":"87.9178","CLASSIFICATION_TYPE":"U","ECCENTRICITY":"0.00019550","MEAN_ANOMALY":"284.0791","FILE":"3799229","MEAN_MOTION_DDOT":"0.0000000000000","BSTAR":"0.00000607330000","REF_FRAME":"TEME","SITE":"AFETR","PERIAPSIS":"538.430"},{"PERIAPSIS":"539.031","SITE":"AFETR","REF_FRAME":"TEME","BSTAR":"-0.00176210000000","MEAN_MOTION_DDOT":"0.0000000000000","FILE":"3799229","MEAN_ANOMALY":"242.2896","ECCENTRICITY":"0.00011380","CLASSIFICATION_TYPE":"U","RA_OF_ASC_NODE":"87.8880","MEAN_MOTION":"15.08816265","GP_ID":"225690787","CENTER_NAME":"EARTH","EPOCH":"2023-02-16T19:58:12.445536","COUNTRY_CODE":"US","TLE_LINE1":"1 53413U 22097AB  23047.83208849 -.00028204  00000-0 -17621-2 0  9991","LAUNCH_DATE":"2022-08-10","EPHEMERIS_TYPE":"0","APOAPSIS":"540.605","PERIOD":"95.439","INCLINATION":"53.2188","ARG_OF_PERICENTER":"117.8211","SEMIMAJOR_AXIS":"6917.953","MEAN_ELEMENT_THEORY":"SGP4","NORAD_CAT_ID":"53413","TIME_SYSTEM":"UTC","ELEMENT_SET_NO":"999","RCS_SIZE":"LARGE","OBJECT_TYPE":"PAYLOAD","DECAY_DATE":null,"TLE_LINE2":"2 53413  53.2188  87.8880 0001138 117.8211 242.2896 15.08816265 29554","MEAN_MOTION_DOT":"-0.00028204","OBJECT_ID":"2022-097AB","OBJECT_NAME":"STARLINK-4500","REV_AT_EPOCH":"2955"},{"ARG_OF_PERICENTER":"17.4187","INCLINATION":"53.2172","SEMIMAJOR_AXIS":"6917.851","NORAD_CAT_ID":"53414","MEAN_ELEMENT_THEORY":"SGP4","LAUNCH_DATE":"2022-08-10","TLE_LINE1":"1 53414U 22097AC  23047.48984023  .00002256  00000-0  15981-3 0  9993","PERIOD":"95.437","APOAPSIS":"542.172","EPHEMERIS_TYPE":"0","MEAN_MOTION_DOT":"0.00002256","TLE_LINE2":"2 53414  53.2172  89.4291 0003550  17.4187 342.6927 15.08849541 29989","REV_AT_EPOCH":"2998","OBJECT_NAME":"STARLINK-4304","OBJECT_ID":"2022-097AC","RCS_SIZE":"LARGE","ELEMENT_SET_NO":"999","TIME_SYSTEM":"UTC","DECAY_DATE":null,"OBJECT_TYPE":"PAYLOAD","MEAN_MOTION_DDOT":"0.0000000000000","BSTAR":"0.00015981000000","REF_FRAME":"TEME","FILE":"3798293","SITE":"AFETR","PERIAPSIS":"537.260","COUNTRY_CODE":"US","RA_OF_ASC_NODE":"89.4291","ECCENTRICITY":"0.00035500","CLASSIFICATION_TYPE":"U","MEAN_ANOMALY":"342.6927","CENTER_NAME":"EARTH","EPOCH":"2023-02-16T11:45:22.195872","GP_ID":"225643754","MEAN_MOTION":"15.08849541"},{"FILE":"3799229","MEAN_MOTION_DDOT":"0.0000000000000","BSTAR":"-0.00026361000000","REF_FRAME":"TEME","SITE":"AFETR","PERIAPSIS":"539.098","COUNTRY_CODE":"US","EPOCH":"2023-02-16T19:37:00.787008","CENTER_NAME":"EARTH","GP_ID":"225691285","MEAN_MOTION":"15.08831947","RA_OF_ASC_NODE":"87.9602","ECCENTRICITY":"0.00009720","CLASSIFICATION_TYPE":"U","MEAN_ANOMALY":"102.2141","NORAD_CAT_ID":"53415","SEMIMAJOR_AXIS":"6917.905","MEAN_ELEMENT_THEORY":"SGP4","INCLINATION":"53.2168","ARG_OF_PERICENTER":"257.8742","PERIOD":"95.438","APOAPSIS":"540.442","EPHEMERIS_TYPE":"0","LAUNCH_DATE":"2022-08-10","TLE_LINE1":"1 53415U 22097AD  23047.81737022 -.00004480  00000-0 -26361-3 0  9993","REV_AT_EPOCH":"2955","OBJECT_NAME":"STARLINK-4479","OBJECT_ID":"2022-097AD","MEAN_MOTION_DOT":"-0.00004480","TLE_LINE2":"2 53415  53.2168  87.9602 0000972 257.8742 102.2141 15.08831947 29558","DECAY_DATE":null,"OBJECT_TYPE":"PAYLOAD","RCS_SIZE":"LARGE","ELEMENT_SET_NO":"999","TIME_SYSTEM":"UTC"},{"PERIOD":"95.435","APOAPSIS":"540.095","EPHEMERIS_TYPE":"0","LAUNCH_DATE":"2022-08-10","TLE_LINE1":"1 53416U 22097AE  23047.80727787  .00024912  00000-0  15759-2 0  9998","MEAN_ELEMENT_THEORY":"SGP4","SEMIMAJOR_AXIS":"6917.746","NORAD_CAT_ID":"53416","INCLINATION":"53.2172","ARG_OF_PERICENTER":"51.9567","DECAY_DATE":null,"OBJECT_TYPE":"PAYLOAD","RCS_SIZE":"LARGE","ELEMENT_SET_NO":"999","TIME_SYSTEM":"UTC","OBJECT_NAME":"STARLINK-4480","REV_AT_EPOCH":"3001","OBJECT_ID":"2022-097AE","MEAN_MOTION_DOT":"0.00024912","TLE_LINE2":"2 53416  53.2172  88.0043 0000699  51.9567 308.1488 15.08883823 30013","SITE":"AFETR","PERIAPSIS":"539.128","FILE":"3799178","MEAN_MOTION_DDOT":"0.0000000000000","BSTAR":"0.00157590000000","REF_FRAME":"TEME","CENTER_NAME":"EARTH","EPOCH":"2023-02-16T19:22:28.807968","GP_ID":"225688020","MEAN_MOTION":"15.08883823","RA_OF_ASC_NODE":"88.0043","ECCENTRICITY":"0.00006990","CLASSIFICATION_TYPE":"U","MEAN_ANOMALY":"308.1488","COUNTRY_CODE":"US"},{"MEAN_MOTION_DDOT":"0.0000000000000","BSTAR":"0.00010898000000","REF_FRAME":"TEME","FILE":"3799229","SITE":"AFETR","PERIAPSIS":"538.616","COUNTRY_CODE":"US","RA_OF_ASC_NODE":"87.9663","CLASSIFICATION_TYPE":"U","ECCENTRICITY":"0.00016650","MEAN_ANOMALY":"272.3490","EPOCH":"2023-02-16T19:31:43.017312","CENTER_NAME":"EARTH","GP_ID":"225690788","MEAN_MOTION":"15.08832802","INCLINATION":"53.2177","ARG_OF_PERICENTER":"87.7693","SEMIMAJOR_AXIS":"6917.902","MEAN_ELEMENT_THEORY":"SGP4","NORAD_CAT_ID":"53417","LAUNCH_DATE":"2022-08-10","TLE_LINE1":"1 53417U 22097AF  23047.81369233  .00001446  00000-0  10898-3 0  9995","PERIOD":"95.438","APOAPSIS":"540.919","EPHEMERIS_TYPE":"0","MEAN_MOTION_DOT":"0.00001446","TLE_LINE2":"2 53417  53.2177  87.9663 0001665  87.7693 272.3490 15.08832802 29559","REV_AT_EPOCH":"2955","OBJECT_NAME":"STARLINK-4484","OBJECT_ID":"2022-097AF","RCS_SIZE":"LARGE","ELEMENT_SET_NO":"999","TIME_SYSTEM":"UTC","DECAY_DATE":null,"OBJECT_TYPE":"PAYLOAD"},{"MEAN_MOTION_DOT":"-0.00008700","TLE_LINE2":"2 53418  53.2163  76.8287 0001064 105.6238 254.4871 15.08817467 29725","OBJECT_ID":"2022-097AG","OBJECT_NAME":"STARLINK-4481","REV_AT_EPOCH":"2972","ELEMENT_SET_NO":"999","TIME_SYSTEM":"UTC","RCS_SIZE":"LARGE","OBJECT_TYPE":"PAYLOAD","DECAY_DATE":null,"ARG_OF_PERICENTER":"105.6238","INCLINATION":"53.2163","MEAN_ELEMENT_THEORY":"SGP4","SEMIMAJOR_AXIS":"6917.949","NORAD_CAT_ID":"53418","TLE_LINE1":"1 53418U 22097AG  23047.97280867 -.00008700  00000-0 -52950-3 0  9995","LAUNCH_DATE":"2022-08-10","EPHEMERIS_TYPE":"0","PERIOD":"95.439","APOAPSIS":"540.550","COUNTRY_CODE":"US","ECCENTRICITY":"0.00010640","CLASSIFICATION_TYPE":"U","MEAN_ANOMALY":"254.4871","RA_OF_ASC_NODE":"76.8287","GP_ID":"225691290","MEAN_MOTION":"15.08817467","EPOCH":"2023-02-16T23:20:50.669088","CENTER_NAME":"EARTH","REF_FRAME":"TEME","MEAN_MOTION_DDOT":"0.0000000000000","BSTAR":"-0.00052950000000","FILE":"3799229","PERIAPSIS":"539.078","SITE":"AFETR"},{"REF_FRAME":"TEME","MEAN_MOTION_DDOT":"0.0000000000000","BSTAR":"-0.00023559000000","FILE":"3799229","PERIAPSIS":"538.292","SITE":"AFETR","COUNTRY_CODE":"US","ECCENTRICITY":"0.00021250","CLASSIFICATION_TYPE":"U","MEAN_ANOMALY":"272.4257","RA_OF_ASC_NODE":"87.9903","GP_ID":"225690793","MEAN_MOTION":"15.08834670","EPOCH":"2023-02-16T19:26:25.282176","CENTER_NAME":"EARTH","INCLINATION":"53.2163","ARG_OF_PERICENTER":"87.6978","NORAD_CAT_ID":"53419","SEMIMAJOR_AXIS":"6917.897","MEAN_ELEMENT_THEORY":"SGP4","TLE_LINE1":"1 53419U 22097AH  23047.81001484 -.00004035  00000-0 -23559-3 0  9995","LAUNCH_DATE":"2022-08-10","EPHEMERIS_TYPE":"0","PERIOD":"95.438","APOAPSIS":"541.232","MEAN_MOTION_DOT":"-0.00004035","TLE_LINE2":"2 53419  53.2163  87.9903 0002125  87.6978 272.4257 15.08834670 29557","OBJECT_ID":"2022-097AH","OBJECT_NAME":"STARLINK-4476","REV_AT_EPOCH":"2955","ELEMENT_SET_NO":"999","TIME_SYSTEM":"UTC","RCS_SIZE":"LARGE","OBJECT_TYPE":"PAYLOAD","DECAY_DATE":null},{"TLE_LINE1":"1 53420U 22097AJ  23047.79897582 -.00001128  00000-0 -52788-4 0  9993","LAUNCH_DATE":"2022-08-10","EPHEMERIS_TYPE":"0","PERIOD":"95.438","APOAPSIS":"540.996","INCLINATION":"53.2147","ARG_OF_PERICENTER":"73.0146","SEMIMAJOR_AXIS":"6917.896","MEAN_ELEMENT_THEORY":"SGP4","NORAD_CAT_ID":"53420","ELEMENT_SET_NO":"999","TIME_SYSTEM":"UTC","RCS_SIZE":"LARGE","OBJECT_TYPE":"PAYLOAD","DECAY_DATE":null,"MEAN_MOTION_DOT":"-0.00001128","TLE_LINE2":"2 53420  53.2147  88.0454 0001785  73.0146 287.1042 15.08834818 29550","OBJECT_ID":"2022-097AJ","REV_AT_EPOCH":"2955","OBJECT_NAME":"STARLINK-4552","PERIAPSIS":"538.526","SITE":"AFETR","REF_FRAME":"TEME","MEAN_MOTION_DDOT":"0.0000000000000","BSTAR":"-0.00005278800000","FILE":"3799229","ECCENTRICITY":"0.00017850","CLASSIFICATION_TYPE":"U","MEAN_ANOMALY":"287.1042","RA_OF_ASC_NODE":"88.0454","GP_ID":"225691291","MEAN_MOTION":"15.08834818","EPOCH":"2023-02-16T19:10:31.510848","CENTER_NAME":"EARTH","COUNTRY_CODE":"US"},{"APOAPSIS":"538.173","PERIOD":"95.380","EPHEMERIS_TYPE":"0","LAUNCH_DATE":"2022-08-10","TLE_LINE1":"1 53421U 22097AK  23047.80353226  .00048873  00000-0  29925-2 0  9999","SEMIMAJOR_AXIS":"6915.110","MEAN_ELEMENT_THEORY":"SGP4","NORAD_CAT_ID":"53421","ARG_OF_PERICENTER":"76.3699","INCLINATION":"53.2168","DECAY_DATE":null,"OBJECT_TYPE":"PAYLOAD","RCS_SIZE":"LARGE","TIME_SYSTEM":"UTC","ELEMENT_SET_NO":"999","REV_AT_EPOCH":"3001","OBJECT_NAME":"STARLINK-4545","OBJECT_ID":"2022-097AK","TLE_LINE2":"2 53421  53.2168  87.9930 0001732  76.3699 283.7486 15.09746828 30013","MEAN_MOTION_DOT":"0.00048873","SITE":"AFETR","PERIAPSIS":"535.777","FILE":"3799178","BSTAR":"0.00299250000000","MEAN_MOTION_DDOT":"0.0000000000000","REF_FRAME":"TEME","CENTER_NAME":"EARTH","EPOCH":"2023-02-16T19:17:05.187264","MEAN_MOTION":"15.09746828","GP_ID":"225688271","RA_OF_ASC_NODE":"87.9930","MEAN_ANOMALY":"283.7486","ECCENTRICITY":"0.00017320","CLASSIFICATION_TYPE":"U","COUNTRY_CODE":"US"}];
